start=new Date('2022-05-28T00:00:00.000Z').valueOf();
sats=[{"OBJECT_TYPE":"PAYLOAD","RA_OF_ASC_NODE":"125.7757","CENTER_NAME":"EARTH","MEAN_ANOMALY":"314.5623","SEMIMAJOR_AXIS":"6925.350","TLE_LINE1":"1 47590U 21009AU  22147.66615309  .00000590  00000-0  58489-4 0  9991","MEAN_MOTION":"15.06399442","ELEMENT_SET_NO":"999","NORAD_CAT_ID":"47590","SITE":"AFETR","REF_FRAME":"TEME","OBJECT_ID":"2021-009AU","PERIAPSIS":"545.791","REV_AT_EPOCH":"7221","FILE":"3468079","OBJECT_NAME":"STARLINK-1995","PERIOD":"95.592","EPOCH":"2022-05-27T15:59:15.626976","CLASSIFICATION_TYPE":"U","ECCENTRICITY":"0.00020560","INCLINATION":"53.0560","MEAN_MOTION_DOT":"0.00000590","EPHEMERIS_TYPE":"0","MEAN_MOTION_DDOT":"0.0000000000000","TIME_SYSTEM":"UTC","GP_ID":"204715605","MEAN_ELEMENT_THEORY":"SGP4","TLE_LINE2":"2 47590  53.0560 125.7757 0002056  45.5534 314.5623 15.06399442 72218","BSTAR":"0.00005848900000","APOAPSIS":"548.639","LAUNCH_DATE":"2021-02-04","DECAY_DATE":null,"COUNTRY_CODE":"US","ARG_OF_PERICENTER":"45.5534","RCS_SIZE":"LARGE"},{"RCS_SIZE":"LARGE","COUNTRY_CODE":"US","ARG_OF_PERICENTER":"44.8688","LAUNCH_DATE":"2021-02-04","DECAY_DATE":null,"MEAN_ELEMENT_THEORY":"SGP4","TLE_LINE2":"2 47591  53.0560 106.0492 0001977  44.8688 315.2461 15.06397639 73080","APOAPSIS":"548.590","BSTAR":"0.00014118000000","MEAN_MOTION_DDOT":"0.0000000000000","GP_ID":"204651386","TIME_SYSTEM":"UTC","MEAN_MOTION_DOT":"0.00001822","EPHEMERIS_TYPE":"0","ECCENTRICITY":"0.00019770","INCLINATION":"53.0560","EPOCH":"2022-05-27T14:31:40.937088","CLASSIFICATION_TYPE":"U","REV_AT_EPOCH":"7308","FILE":"3467341","OBJECT_NAME":"STARLINK-1996","PERIOD":"95.592","NORAD_CAT_ID":"47591","REF_FRAME":"TEME","SITE":"AFETR","PERIAPSIS":"545.852","OBJECT_ID":"2021-009AV","TLE_LINE1":"1 47591U 21009AV  22147.60533492  .00001822  00000-0  14118-3 0  9997","ELEMENT_SET_NO":"999","MEAN_MOTION":"15.06397639","SEMIMAJOR_AXIS":"6925.356","CENTER_NAME":"EARTH","MEAN_ANOMALY":"315.2461","RA_OF_ASC_NODE":"106.0492","OBJECT_TYPE":"PAYLOAD"},{"REV_AT_EPOCH":"7220","FILE":"3468079","PERIOD":"95.593","OBJECT_NAME":"STARLINK-1997","EPOCH":"2022-05-27T15:16:48.711360","CLASSIFICATION_TYPE":"U","ELEMENT_SET_NO":"999","TLE_LINE1":"1 47592U 21009AW  22147.63667490 -.00000986  00000-0 -47330-4 0  9992","MEAN_MOTION":"15.06390493","NORAD_CAT_ID":"47592","REF_FRAME":"TEME","SITE":"AFETR","OBJECT_ID":"2021-009AW","PERIAPSIS":"546.042","CENTER_NAME":"EARTH","MEAN_ANOMALY":"308.0442","SEMIMAJOR_AXIS":"6925.378","OBJECT_TYPE":"PAYLOAD","RA_OF_ASC_NODE":"125.9035","COUNTRY_CODE":"US","ARG_OF_PERICENTER":"52.0704","RCS_SIZE":"LARGE","MEAN_ELEMENT_THEORY":"SGP4","TLE_LINE2":"2 47592  53.0548 125.9035 0001734  52.0704 308.0442 15.06390493 72204","APOAPSIS":"548.444","BSTAR":"-0.00004733000000","LAUNCH_DATE":"2021-02-04","DECAY_DATE":null,"MEAN_MOTION_DDOT":"0.0000000000000","TIME_SYSTEM":"UTC","GP_ID":"204714607","INCLINATION":"53.0548","ECCENTRICITY":"0.00017340","MEAN_MOTION_DOT":"-0.00000986","EPHEMERIS_TYPE":"0"},{"EPOCH":"2022-05-27T16:09:52.710336","CLASSIFICATION_TYPE":"U","REV_AT_EPOCH":"7221","FILE":"3468079","PERIOD":"95.592","OBJECT_NAME":"STARLINK-1998","NORAD_CAT_ID":"47593","REF_FRAME":"TEME","SITE":"AFETR","PERIAPSIS":"545.606","OBJECT_ID":"2021-009AX","MEAN_MOTION":"15.06400444","TLE_LINE1":"1 47593U 21009AX  22147.67352674  .00001016  00000-0  87091-4 0  9993","ELEMENT_SET_NO":"999","SEMIMAJOR_AXIS":"6925.347","CENTER_NAME":"EARTH","MEAN_ANOMALY":"311.4601","RA_OF_ASC_NODE":"125.7222","OBJECT_TYPE":"PAYLOAD","RCS_SIZE":"LARGE","COUNTRY_CODE":"US","ARG_OF_PERICENTER":"48.6587","LAUNCH_DATE":"2021-02-04","DECAY_DATE":null,"MEAN_ELEMENT_THEORY":"SGP4","TLE_LINE2":"2 47593  53.0539 125.7222 0002320  48.6587 311.4601 15.06400444 72217","APOAPSIS":"548.819","BSTAR":"0.00008709100000","MEAN_MOTION_DDOT":"0.0000000000000","GP_ID":"204714857","TIME_SYSTEM":"UTC","MEAN_MOTION_DOT":"0.00001016","EPHEMERIS_TYPE":"0","INCLINATION":"53.0539","ECCENTRICITY":"0.00023200"},{"FILE":"3468079","OBJECT_NAME":"STARLINK-1999","PERIOD":"95.592","REV_AT_EPOCH":"7220","CLASSIFICATION_TYPE":"U","EPOCH":"2022-05-27T15:22:05.948832","TLE_LINE1":"1 47594U 21009AY  22147.64034663  .00001206  00000-0  99819-4 0  9998","MEAN_MOTION":"15.06407069","ELEMENT_SET_NO":"999","OBJECT_ID":"2021-009AY","PERIAPSIS":"545.531","NORAD_CAT_ID":"47594","REF_FRAME":"TEME","SITE":"AFETR","MEAN_ANOMALY":"309.5299","CENTER_NAME":"EARTH","SEMIMAJOR_AXIS":"6925.327","OBJECT_TYPE":"PAYLOAD","RA_OF_ASC_NODE":"125.8905","ARG_OF_PERICENTER":"50.5902","COUNTRY_CODE":"US","RCS_SIZE":"LARGE","APOAPSIS":"548.853","BSTAR":"0.00009981900000","MEAN_ELEMENT_THEORY":"SGP4","TLE_LINE2":"2 47594  53.0548 125.8905 0002399  50.5902 309.5299 15.06407069 72206","DECAY_DATE":null,"LAUNCH_DATE":"2021-02-04","TIME_SYSTEM":"UTC","GP_ID":"204716104","MEAN_MOTION_DDOT":"0.0000000000000","ECCENTRICITY":"0.00023990","INCLINATION":"53.0548","EPHEMERIS_TYPE":"0","MEAN_MOTION_DOT":"0.00001206"},{"DECAY_DATE":null,"LAUNCH_DATE":"2021-02-04","APOAPSIS":"549.399","BSTAR":"0.00017048000000","MEAN_ELEMENT_THEORY":"SGP4","TLE_LINE2":"2 47595  53.0530 126.8439 0003152  43.5684 316.5554 15.06399232 72178","RCS_SIZE":"LARGE","ARG_OF_PERICENTER":"43.5684","COUNTRY_CODE":"US","EPHEMERIS_TYPE":"0","MEAN_MOTION_DOT":"0.00002258","ECCENTRICITY":"0.00031520","INCLINATION":"53.0530","TIME_SYSTEM":"UTC","GP_ID":"204678387","MEAN_MOTION_DDOT":"0.0000000000000","OBJECT_ID":"2021-009AZ","PERIAPSIS":"545.033","NORAD_CAT_ID":"47595","SITE":"AFETR","REF_FRAME":"TEME","ELEMENT_SET_NO":"999","TLE_LINE1":"1 47595U 21009AZ  22147.42657532  .00002258  00000-0  17048-3 0  9992","MEAN_MOTION":"15.06399232","CLASSIFICATION_TYPE":"U","EPOCH":"2022-05-27T10:14:16.107648","FILE":"3467585","OBJECT_NAME":"STARLINK-2000","PERIOD":"95.592","REV_AT_EPOCH":"7217","RA_OF_ASC_NODE":"126.8439","OBJECT_TYPE":"PAYLOAD","SEMIMAJOR_AXIS":"6925.351","MEAN_ANOMALY":"316.5554","CENTER_NAME":"EARTH"},{"MEAN_MOTION_DDOT":"0.0000000000000","TIME_SYSTEM":"UTC","GP_ID":"204715107","INCLINATION":"53.0541","ECCENTRICITY":"0.00021530","MEAN_MOTION_DOT":"0.00003403","EPHEMERIS_TYPE":"0","COUNTRY_CODE":"US","ARG_OF_PERICENTER":"54.6653","RCS_SIZE":"LARGE","TLE_LINE2":"2 47596  53.0541 125.9291 0002153  54.6653 305.4537 15.06403103 72201","MEAN_ELEMENT_THEORY":"SGP4","APOAPSIS":"548.695","BSTAR":"0.00024725000000","LAUNCH_DATE":"2021-02-04","DECAY_DATE":null,"CENTER_NAME":"EARTH","MEAN_ANOMALY":"305.4537","SEMIMAJOR_AXIS":"6925.339","OBJECT_TYPE":"PAYLOAD","RA_OF_ASC_NODE":"125.9291","REV_AT_EPOCH":"7220","PERIOD":"95.592","OBJECT_NAME":"STARLINK-2001","FILE":"3468079","EPOCH":"2022-05-27T15:06:11.795616","CLASSIFICATION_TYPE":"U","ELEMENT_SET_NO":"999","TLE_LINE1":"1 47596U 21009BA  22147.62930319  .00003403  00000-0  24725-3 0  9995","MEAN_MOTION":"15.06403103","REF_FRAME":"TEME","SITE":"AFETR","NORAD_CAT_ID":"47596","PERIAPSIS":"545.713","OBJECT_ID":"2021-009BA"},{"MEAN_MOTION_DOT":"0.00000181","EPHEMERIS_TYPE":"0","INCLINATION":"53.0541","ECCENTRICITY":"0.00023350","MEAN_MOTION_DDOT":"0.0000000000000","GP_ID":"204679382","TIME_SYSTEM":"UTC","LAUNCH_DATE":"2021-02-04","DECAY_DATE":null,"TLE_LINE2":"2 47597  53.0541 126.8588 0002335  48.7910 311.3280 15.06394423 72174","MEAN_ELEMENT_THEORY":"SGP4","APOAPSIS":"548.848","BSTAR":"0.00003110800000","RCS_SIZE":"LARGE","COUNTRY_CODE":"US","ARG_OF_PERICENTER":"48.7910","RA_OF_ASC_NODE":"126.8588","OBJECT_TYPE":"PAYLOAD","SEMIMAJOR_AXIS":"6925.366","CENTER_NAME":"EARTH","MEAN_ANOMALY":"311.3280","SITE":"AFETR","REF_FRAME":"TEME","NORAD_CAT_ID":"47597","OBJECT_ID":"2021-009BB","PERIAPSIS":"545.614","MEAN_MOTION":"15.06394423","TLE_LINE1":"1 47597U 21009BB  22147.42288529  .00000181  00000-0  31108-4 0  9997","ELEMENT_SET_NO":"999","EPOCH":"2022-05-27T10:08:57.289056","CLASSIFICATION_TYPE":"U","REV_AT_EPOCH":"7217","PERIOD":"95.592","OBJECT_NAME":"STARLINK-2002","FILE":"3467585"},{"SEMIMAJOR_AXIS":"6925.394","CENTER_NAME":"EARTH","MEAN_ANOMALY":"308.3737","RA_OF_ASC_NODE":"96.2215","OBJECT_TYPE":"PAYLOAD","EPOCH":"2022-05-27T13:34:38.105184","CLASSIFICATION_TYPE":"U","REV_AT_EPOCH":"7323","FILE":"3467331","PERIOD":"95.593","OBJECT_NAME":"STARLINK-2003","NORAD_CAT_ID":"47598","SITE":"AFETR","REF_FRAME":"TEME","OBJECT_ID":"2021-009BC","PERIAPSIS":"546.024","ELEMENT_SET_NO":"999","TLE_LINE1":"1 47598U 21009BC  22147.56571881  .00000113  00000-0  26500-4 0  9994","MEAN_MOTION":"15.06385015","MEAN_MOTION_DDOT":"0.0000000000000","TIME_SYSTEM":"UTC","GP_ID":"204651408","MEAN_MOTION_DOT":"0.00000113","EPHEMERIS_TYPE":"0","ECCENTRICITY":"0.00017840","INCLINATION":"53.0554","RCS_SIZE":"LARGE","COUNTRY_CODE":"US","ARG_OF_PERICENTER":"51.7412","LAUNCH_DATE":"2021-02-04","DECAY_DATE":null,"MEAN_ELEMENT_THEORY":"SGP4","TLE_LINE2":"2 47598  53.0554  96.2215 0001784  51.7412 308.3737 15.06385015 73232","APOAPSIS":"548.495","BSTAR":"0.00002650000000"},{"OBJECT_TYPE":"PAYLOAD","RA_OF_ASC_NODE":"85.0751","MEAN_ANOMALY":"307.3256","CENTER_NAME":"EARTH","SEMIMAJOR_AXIS":"6925.266","ELEMENT_SET_NO":"999","TLE_LINE1":"1 47599U 21009BD  22147.82095419 -.00005690  00000-0 -36309-3 0  9996","MEAN_MOTION":"15.06426788","OBJECT_ID":"2021-009BD","PERIAPSIS":"545.742","NORAD_CAT_ID":"47599","SITE":"AFETR","REF_FRAME":"TEME","FILE":"3468079","PERIOD":"95.590","OBJECT_NAME":"STARLINK-2004","REV_AT_EPOCH":"7279","CLASSIFICATION_TYPE":"U","EPOCH":"2022-05-27T19:42:10.442016","INCLINATION":"53.0564","ECCENTRICITY":"0.00020070","EPHEMERIS_TYPE":"0","MEAN_MOTION_DOT":"-0.00005690","GP_ID":"204715849","TIME_SYSTEM":"UTC","MEAN_MOTION_DDOT":"0.0000000000000","APOAPSIS":"548.521","BSTAR":"-0.00036309000000","MEAN_ELEMENT_THEORY":"SGP4","TLE_LINE2":"2 47599  53.0564  85.0751 0002007  52.7916 307.3256 15.06426788 72792","DECAY_DATE":null,"LAUNCH_DATE":"2021-02-04","ARG_OF_PERICENTER":"52.7916","COUNTRY_CODE":"US","RCS_SIZE":"LARGE"}];
